start=new Date('2022-11-21T00:00:00.000Z').valueOf();
sats=[{"NORAD_CAT_ID":"51108","LAUNCH_DATE":"2022-01-19","ELEMENT_SET_NO":"999","TLE_LINE2":"2 51108  53.2178 300.1549 0003003  30.0380 330.0784 15.08846571 46915","BSTAR":"0.00003426500000","INCLINATION":"53.2178","REF_FRAME":"TEME","APOAPSIS":"541.803","PERIAPSIS":"537.648","GP_ID":"218292601","CLASSIFICATION_TYPE":"U","TLE_LINE1":"1 51108U 22005E   22324.33948727  .00000257  00000-0  34265-4 0  9998","DECAY_DATE":null,"MEAN_MOTION":"15.08846571","SITE":"AFETR","MEAN_ANOMALY":"330.0784","RCS_SIZE":"LARGE","PERIOD":"95.437","SEMIMAJOR_AXIS":"6917.860","OBJECT_NAME":"STARLINK-3362","MEAN_MOTION_DOT":"0.00000257","MEAN_MOTION_DDOT":"0.0000000000000","EPOCH":"2022-11-20T08:08:51.700128","CENTER_NAME":"EARTH","OBJECT_TYPE":"PAYLOAD","MEAN_ELEMENT_THEORY":"SGP4","ARG_OF_PERICENTER":"30.0380","EPHEMERIS_TYPE":"0","OBJECT_ID":"2022-005E","RA_OF_ASC_NODE":"300.1549","ECCENTRICITY":"0.00030030","REV_AT_EPOCH":"4691","TIME_SYSTEM":"UTC","FILE":"3664760","COUNTRY_CODE":"US"},{"CENTER_NAME":"EARTH","OBJECT_NAME":"STARLINK-3358","SEMIMAJOR_AXIS":"6917.873","MEAN_MOTION_DDOT":"0.0000000000000","MEAN_MOTION_DOT":"-0.00000058","EPOCH":"2022-11-20T07:06:39.056832","PERIOD":"95.437","MEAN_ELEMENT_THEORY":"SGP4","OBJECT_TYPE":"PAYLOAD","RA_OF_ASC_NODE":"300.3299","OBJECT_ID":"2022-005F","EPHEMERIS_TYPE":"0","ARG_OF_PERICENTER":"37.1101","COUNTRY_CODE":"US","FILE":"3664760","TIME_SYSTEM":"UTC","REV_AT_EPOCH":"4667","ECCENTRICITY":"0.00031100","ELEMENT_SET_NO":"999","TLE_LINE2":"2 51109  53.2171 300.3299 0003110  37.1101 323.0105 15.08842283 46679","BSTAR":"0.00001449100000","LAUNCH_DATE":"2022-01-19","NORAD_CAT_ID":"51109","APOAPSIS":"541.890","REF_FRAME":"TEME","INCLINATION":"53.2171","TLE_LINE1":"1 51109U 22005F   22324.29628538 -.00000058  00000-0  14491-4 0  9998","CLASSIFICATION_TYPE":"U","GP_ID":"218292352","PERIAPSIS":"537.587","MEAN_ANOMALY":"323.0105","RCS_SIZE":"LARGE","MEAN_MOTION":"15.08842283","SITE":"AFETR","DECAY_DATE":null},{"ARG_OF_PERICENTER":"35.4059","EPHEMERIS_TYPE":"0","OBJECT_ID":"2022-005G","RA_OF_ASC_NODE":"300.1909","ECCENTRICITY":"0.00026380","REV_AT_EPOCH":"4691","TIME_SYSTEM":"UTC","FILE":"3664760","COUNTRY_CODE":"US","PERIOD":"95.437","OBJECT_NAME":"STARLINK-3344","SEMIMAJOR_AXIS":"6917.872","EPOCH":"2022-11-20T07:58:15.981888","MEAN_MOTION_DDOT":"0.0000000000000","MEAN_MOTION_DOT":"0.00000434","CENTER_NAME":"EARTH","OBJECT_TYPE":"PAYLOAD","MEAN_ELEMENT_THEORY":"SGP4","PERIAPSIS":"537.912","GP_ID":"218291600","TLE_LINE1":"1 51110U 22005G   22324.33212942  .00000434  00000-0  45377-4 0  9997","CLASSIFICATION_TYPE":"U","DECAY_DATE":null,"MEAN_MOTION":"15.08842881","SITE":"AFETR","MEAN_ANOMALY":"324.7108","RCS_SIZE":"LARGE","NORAD_CAT_ID":"51110","LAUNCH_DATE":"2022-01-19","TLE_LINE2":"2 51110  53.2177 300.1909 0002638  35.4059 324.7108 15.08842881 46912","ELEMENT_SET_NO":"999","BSTAR":"0.00004537700000","INCLINATION":"53.2177","REF_FRAME":"TEME","APOAPSIS":"541.562"},{"BSTAR":"0.00009855800000","TLE_LINE2":"2 51111  53.2182 300.3033 0002643  37.1284 322.9891 15.08843734 46900","ELEMENT_SET_NO":"999","LAUNCH_DATE":"2022-01-19","NORAD_CAT_ID":"51111","APOAPSIS":"541.562","REF_FRAME":"TEME","INCLINATION":"53.2182","TLE_LINE1":"1 51111U 22005H   22324.30636797  .00001281  00000-0  98558-4 0  9993","CLASSIFICATION_TYPE":"U","GP_ID":"218291850","PERIAPSIS":"537.906","RCS_SIZE":"LARGE","MEAN_ANOMALY":"322.9891","SITE":"AFETR","MEAN_MOTION":"15.08843734","DECAY_DATE":null,"CENTER_NAME":"EARTH","EPOCH":"2022-11-20T07:21:10.192608","MEAN_MOTION_DDOT":"0.0000000000000","MEAN_MOTION_DOT":"0.00001281","OBJECT_NAME":"STARLINK-3173","SEMIMAJOR_AXIS":"6917.869","PERIOD":"95.437","MEAN_ELEMENT_THEORY":"SGP4","OBJECT_TYPE":"PAYLOAD","RA_OF_ASC_NODE":"300.3033","OBJECT_ID":"2022-005H","EPHEMERIS_TYPE":"0","ARG_OF_PERICENTER":"37.1284","COUNTRY_CODE":"US","FILE":"3664760","TIME_SYSTEM":"UTC","ECCENTRICITY":"0.00026430","REV_AT_EPOCH":"4690"},{"APOAPSIS":"541.952","REF_FRAME":"TEME","INCLINATION":"53.2130","BSTAR":"0.00018713000000","ELEMENT_SET_NO":"999","TLE_LINE2":"2 51112  53.2130 297.5333 0003228  37.8352 322.2866 15.08848748 47004","LAUNCH_DATE":"2022-01-19","NORAD_CAT_ID":"51112","RCS_SIZE":"LARGE","MEAN_ANOMALY":"322.2866","SITE":"AFETR","MEAN_MOTION":"15.08848748","DECAY_DATE":null,"TLE_LINE1":"1 51112U 22005J   22324.92460899  .00002692  00000-0  18713-3 0  9991","CLASSIFICATION_TYPE":"U","GP_ID":"218362880","PERIAPSIS":"537.486","MEAN_ELEMENT_THEORY":"SGP4","OBJECT_TYPE":"PAYLOAD","CENTER_NAME":"EARTH","MEAN_MOTION_DDOT":"0.0000000000000","MEAN_MOTION_DOT":"0.00002692","EPOCH":"2022-11-20T22:11:26.216736","OBJECT_NAME":"STARLINK-3374","SEMIMAJOR_AXIS":"6917.854","PERIOD":"95.437","COUNTRY_CODE":"US","FILE":"3665715","TIME_SYSTEM":"UTC","REV_AT_EPOCH":"4700","ECCENTRICITY":"0.00032280","RA_OF_ASC_NODE":"297.5333","OBJECT_ID":"2022-005J","ARG_OF_PERICENTER":"37.8352","EPHEMERIS_TYPE":"0"},{"FILE":"3665715","COUNTRY_CODE":"US","REV_AT_EPOCH":"4699","ECCENTRICITY":"0.00027250","TIME_SYSTEM":"UTC","RA_OF_ASC_NODE":"297.5639","ARG_OF_PERICENTER":"35.7382","EPHEMERIS_TYPE":"0","OBJECT_ID":"2022-005K","MEAN_ELEMENT_THEORY":"SGP4","OBJECT_TYPE":"PAYLOAD","CENTER_NAME":"EARTH","PERIOD":"95.437","SEMIMAJOR_AXIS":"6917.868","OBJECT_NAME":"STARLINK-3372","MEAN_MOTION_DDOT":"0.0000000000000","MEAN_MOTION_DOT":"0.00001229","EPOCH":"2022-11-20T21:55:32.565504","MEAN_ANOMALY":"324.3792","RCS_SIZE":"LARGE","DECAY_DATE":null,"MEAN_MOTION":"15.08843947","SITE":"AFETR","GP_ID":"218361628","TLE_LINE1":"1 51113U 22005K   22324.91357136  .00001229  00000-0  95298-4 0  9999","CLASSIFICATION_TYPE":"U","PERIAPSIS":"537.848","REF_FRAME":"TEME","APOAPSIS":"541.618","INCLINATION":"53.2174","ELEMENT_SET_NO":"999","TLE_LINE2":"2 51113  53.2174 297.5639 0002725  35.7382 324.3792 15.08843947 46997","BSTAR":"0.00009529800000","NORAD_CAT_ID":"51113","LAUNCH_DATE":"2022-01-19"},{"OBJECT_TYPE":"PAYLOAD","MEAN_ELEMENT_THEORY":"SGP4","SEMIMAJOR_AXIS":"6917.869","OBJECT_NAME":"STARLINK-3375","EPOCH":"2022-11-20T08:03:33.783552","MEAN_MOTION_DDOT":"0.0000000000000","MEAN_MOTION_DOT":"0.00002452","PERIOD":"95.437","CENTER_NAME":"EARTH","TIME_SYSTEM":"UTC","REV_AT_EPOCH":"4691","ECCENTRICITY":"0.00026280","COUNTRY_CODE":"US","FILE":"3664760","OBJECT_ID":"2022-005L","EPHEMERIS_TYPE":"0","ARG_OF_PERICENTER":"28.7154","RA_OF_ASC_NODE":"300.1767","INCLINATION":"53.2181","APOAPSIS":"541.552","REF_FRAME":"TEME","LAUNCH_DATE":"2022-01-19","NORAD_CAT_ID":"51114","ELEMENT_SET_NO":"999","TLE_LINE2":"2 51114  53.2181 300.1767 0002628  28.7154 331.3982 15.08843759 46912","BSTAR":"0.00017210000000","MEAN_MOTION":"15.08843759","SITE":"AFETR","DECAY_DATE":null,"MEAN_ANOMALY":"331.3982","RCS_SIZE":"LARGE","PERIAPSIS":"537.916","TLE_LINE1":"1 51114U 22005L   22324.33580768  .00002452  00000-0  17210-3 0  9991","CLASSIFICATION_TYPE":"U","GP_ID":"218291102"},{"MEAN_ELEMENT_THEORY":"SGP4","OBJECT_TYPE":"PAYLOAD","CENTER_NAME":"EARTH","EPOCH":"2022-11-20T09:01:51.627072","MEAN_MOTION_DDOT":"0.0000000000000","MEAN_MOTION_DOT":"0.00001129","SEMIMAJOR_AXIS":"6917.875","OBJECT_NAME":"STARLINK-3397","PERIOD":"95.437","COUNTRY_CODE":"US","FILE":"3664760","TIME_SYSTEM":"UTC","REV_AT_EPOCH":"4691","ECCENTRICITY":"0.00026930","RA_OF_ASC_NODE":"299.9745","OBJECT_ID":"2022-005M","EPHEMERIS_TYPE":"0","ARG_OF_PERICENTER":"37.0074","APOAPSIS":"541.603","REF_FRAME":"TEME","INCLINATION":"53.2177","BSTAR":"0.00008904700000","TLE_LINE2":"2 51115  53.2177 299.9745 0002693  37.0074 323.1104 15.08841739 46916","ELEMENT_SET_NO":"999","LAUNCH_DATE":"2022-01-19","NORAD_CAT_ID":"51115","RCS_SIZE":"LARGE","MEAN_ANOMALY":"323.1104","SITE":"AFETR","MEAN_MOTION":"15.08841739","DECAY_DATE":null,"TLE_LINE1":"1 51115U 22005M   22324.37629198  .00001129  00000-0  89047-4 0  9995","CLASSIFICATION_TYPE":"U","GP_ID":"218291351","PERIAPSIS":"537.877"},{"OBJECT_TYPE":"PAYLOAD","MEAN_ELEMENT_THEORY":"SGP4","PERIOD":"95.437","OBJECT_NAME":"STARLINK-3243","SEMIMAJOR_AXIS":"6917.864","MEAN_MOTION_DDOT":"0.0000000000000","MEAN_MOTION_DOT":"0.00000449","EPOCH":"2022-11-20T15:44:35.505600","CENTER_NAME":"EARTH","REV_AT_EPOCH":"4695","ECCENTRICITY":"0.00026980","TIME_SYSTEM":"UTC","FILE":"3665715","COUNTRY_CODE":"US","EPHEMERIS_TYPE":"0","ARG_OF_PERICENTER":"25.2392","OBJECT_ID":"2022-005N","RA_OF_ASC_NODE":"298.7283","INCLINATION":"53.2179","REF_FRAME":"TEME","APOAPSIS":"541.596","NORAD_CAT_ID":"51116","LAUNCH_DATE":"2022-01-19","ELEMENT_SET_NO":"999","TLE_LINE2":"2 51116  53.2179 298.7283 0002698  25.2392 334.8732 15.08845267 46950","BSTAR":"0.00004630300000","DECAY_DATE":null,"MEAN_MOTION":"15.08845267","SITE":"AFETR","MEAN_ANOMALY":"334.8732","RCS_SIZE":"LARGE","PERIAPSIS":"537.863","GP_ID":"218362381","CLASSIFICATION_TYPE":"U","TLE_LINE1":"1 51116U 22005N   22324.65596650  .00000449  00000-0  46303-4 0  9995"},{"OBJECT_TYPE":"PAYLOAD","MEAN_ELEMENT_THEORY":"SGP4","PERIOD":"95.437","MEAN_MOTION_DDOT":"0.0000000000000","MEAN_MOTION_DOT":"0.00002817","EPOCH":"2022-11-20T21:23:45.040992","SEMIMAJOR_AXIS":"6917.866","OBJECT_NAME":"STARLINK-3391","CENTER_NAME":"EARTH","ECCENTRICITY":"0.00030110","REV_AT_EPOCH":"4699","TIME_SYSTEM":"UTC","FILE":"3665715","COUNTRY_CODE":"US","ARG_OF_PERICENTER":"37.7361","EPHEMERIS_TYPE":"0","OBJECT_ID":"2022-005P","RA_OF_ASC_NODE":"297.6767","INCLINATION":"53.2163","REF_FRAME":"TEME","APOAPSIS":"541.814","NORAD_CAT_ID":"51117","LAUNCH_DATE":"2022-01-19","BSTAR":"0.00019502000000","ELEMENT_SET_NO":"999","TLE_LINE2":"2 51117  53.2163 297.6767 0003011  37.7361 322.3842 15.08844574 46991","DECAY_DATE":null,"SITE":"AFETR","MEAN_MOTION":"15.08844574","RCS_SIZE":"LARGE","MEAN_ANOMALY":"322.3842","PERIAPSIS":"537.648","GP_ID":"218361130","CLASSIFICATION_TYPE":"U","TLE_LINE1":"1 51117U 22005P   22324.89149353  .00002817  00000-0  19502-3 0  9997"}];
